start=new Date('2022-11-17T00:00:00.000Z').valueOf();
sats=[{"TIME_SYSTEM":"UTC","CLASSIFICATION_TYPE":"U","PERIOD":"95.437","OBJECT_TYPE":"PAYLOAD","DECAY_DATE":null,"FILE":"3659788","BSTAR":"0.00012666000000","MEAN_ANOMALY":"321.2615","OBJECT_NAME":"STARLINK-4012","GP_ID":"217972421","LAUNCH_DATE":"2022-05-14","TLE_LINE2":"2 52602  53.2173 307.8969 0002238  38.8537 321.2615 15.08847807 29097","INCLINATION":"53.2173","ECCENTRICITY":"0.00022380","MEAN_ELEMENT_THEORY":"SGP4","RCS_SIZE":"LARGE","NORAD_CAT_ID":"52602","COUNTRY_CODE":"US","OBJECT_ID":"2022-052E","PERIAPSIS":"538.173","MEAN_MOTION":"15.08847807","REF_FRAME":"TEME","MEAN_MOTION_DDOT":"0.0000000000000","TLE_LINE1":"1 52602U 22052E   22320.38440846  .00001729  00000-0  12666-3 0  9995","EPOCH":"2022-11-16T09:13:32.890944","RA_OF_ASC_NODE":"307.8969","SITE":"AFETR","CENTER_NAME":"EARTH","MEAN_MOTION_DOT":"0.00001729","ARG_OF_PERICENTER":"38.8537","ELEMENT_SET_NO":"999","EPHEMERIS_TYPE":"0","SEMIMAJOR_AXIS":"6917.857","APOAPSIS":"541.270","REV_AT_EPOCH":"2909"},{"MEAN_MOTION":"15.08850832","REF_FRAME":"TEME","MEAN_MOTION_DDOT":"0.0000000000000","TLE_LINE1":"1 52603U 22052F   22320.70088718  .00004777  00000-0  31792-3 0  9995","PERIAPSIS":"538.031","NORAD_CAT_ID":"52603","COUNTRY_CODE":"US","OBJECT_ID":"2022-052F","MEAN_ELEMENT_THEORY":"SGP4","RCS_SIZE":"LARGE","APOAPSIS":"541.394","REV_AT_EPOCH":"2914","ELEMENT_SET_NO":"999","ARG_OF_PERICENTER":"41.2578","EPHEMERIS_TYPE":"0","SEMIMAJOR_AXIS":"6917.847","RA_OF_ASC_NODE":"306.4863","CENTER_NAME":"EARTH","SITE":"AFETR","MEAN_MOTION_DOT":"0.00004777","EPOCH":"2022-11-16T16:49:16.652352","DECAY_DATE":null,"PERIOD":"95.437","OBJECT_TYPE":"PAYLOAD","TIME_SYSTEM":"UTC","CLASSIFICATION_TYPE":"U","ECCENTRICITY":"0.00024310","GP_ID":"218015912","INCLINATION":"53.2186","TLE_LINE2":"2 52603  53.2186 306.4863 0002431  41.2578 318.8598 15.08850832 29148","LAUNCH_DATE":"2022-05-14","MEAN_ANOMALY":"318.8598","OBJECT_NAME":"STARLINK-4016","FILE":"3660705","BSTAR":"0.00031792000000"},{"CLASSIFICATION_TYPE":"U","TIME_SYSTEM":"UTC","DECAY_DATE":null,"OBJECT_TYPE":"PAYLOAD","PERIOD":"95.438","OBJECT_NAME":"STARLINK-4013","MEAN_ANOMALY":"334.5276","FILE":"3659788","BSTAR":"-0.00000235590000","ECCENTRICITY":"0.00030830","GP_ID":"217973417","INCLINATION":"53.2195","TLE_LINE2":"2 52604  53.2195 307.9274 0003083  25.5868 334.5276 15.08836178 28292","LAUNCH_DATE":"2022-05-14","COUNTRY_CODE":"US","NORAD_CAT_ID":"52604","OBJECT_ID":"2022-052G","MEAN_ELEMENT_THEORY":"SGP4","RCS_SIZE":"LARGE","MEAN_MOTION":"15.08836178","TLE_LINE1":"1 52604U 22052G   22320.37705176 -.00000326  00000-0 -23559-5 0  9995","MEAN_MOTION_DDOT":"0.0000000000000","REF_FRAME":"TEME","PERIAPSIS":"537.624","RA_OF_ASC_NODE":"307.9274","MEAN_MOTION_DOT":"-0.00000326","SITE":"AFETR","CENTER_NAME":"EARTH","EPOCH":"2022-11-16T09:02:57.272064","REV_AT_EPOCH":"2829","APOAPSIS":"541.890","EPHEMERIS_TYPE":"0","ELEMENT_SET_NO":"999","ARG_OF_PERICENTER":"25.5868","SEMIMAJOR_AXIS":"6917.892"},{"APOAPSIS":"541.322","REV_AT_EPOCH":"2826","ELEMENT_SET_NO":"999","ARG_OF_PERICENTER":"38.3687","EPHEMERIS_TYPE":"0","SEMIMAJOR_AXIS":"6917.902","RA_OF_ASC_NODE":"311.5886","CENTER_NAME":"EARTH","SITE":"AFETR","MEAN_MOTION_DOT":"-0.00000203","EPOCH":"2022-11-16T16:14:10.477824","MEAN_MOTION":"15.08832831","REF_FRAME":"TEME","MEAN_MOTION_DDOT":"0.0000000000000","TLE_LINE1":"1 52605U 22052H   22320.67651016 -.00000203  00000-0  53314-5 0  9997","PERIAPSIS":"538.212","COUNTRY_CODE":"US","NORAD_CAT_ID":"52605","OBJECT_ID":"2022-052H","MEAN_ELEMENT_THEORY":"SGP4","RCS_SIZE":"LARGE","ECCENTRICITY":"0.00022480","GP_ID":"218016913","TLE_LINE2":"2 52605  53.2182 311.5886 0002248  38.3687 321.7465 15.08832831 28269","INCLINATION":"53.2182","LAUNCH_DATE":"2022-05-14","MEAN_ANOMALY":"321.7465","OBJECT_NAME":"STARLINK-4000","FILE":"3660705","BSTAR":"0.00000533140000","DECAY_DATE":null,"PERIOD":"95.438","OBJECT_TYPE":"PAYLOAD","TIME_SYSTEM":"UTC","CLASSIFICATION_TYPE":"U"},{"PERIAPSIS":"538.014","REF_FRAME":"TEME","MEAN_MOTION_DDOT":"0.0000000000000","TLE_LINE1":"1 52606U 22052J   22320.37336954  .00000744  00000-0  64843-4 0  9993","MEAN_MOTION":"15.08834123","RCS_SIZE":"LARGE","MEAN_ELEMENT_THEORY":"SGP4","COUNTRY_CODE":"US","NORAD_CAT_ID":"52606","OBJECT_ID":"2022-052J","SEMIMAJOR_AXIS":"6917.898","ELEMENT_SET_NO":"999","ARG_OF_PERICENTER":"28.3201","EPHEMERIS_TYPE":"0","APOAPSIS":"541.513","REV_AT_EPOCH":"2829","EPOCH":"2022-11-16T08:57:39.128256","SITE":"AFETR","CENTER_NAME":"EARTH","MEAN_MOTION_DOT":"0.00000744","RA_OF_ASC_NODE":"307.9479","PERIOD":"95.438","OBJECT_TYPE":"PAYLOAD","DECAY_DATE":null,"TIME_SYSTEM":"UTC","CLASSIFICATION_TYPE":"U","INCLINATION":"53.2195","TLE_LINE2":"2 52606  53.2195 307.9479 0002529  28.3201 331.7928 15.08834123 28298","LAUNCH_DATE":"2022-05-14","GP_ID":"217972922","ECCENTRICITY":"0.00025290","BSTAR":"0.00006484300000","FILE":"3659788","MEAN_ANOMALY":"331.7928","OBJECT_NAME":"STARLINK-3928"},{"PERIAPSIS":"538.176","REF_FRAME":"TEME","MEAN_MOTION_DDOT":"0.0000000000000","TLE_LINE1":"1 52607U 22052K   22320.47043900  .00000691  00000-0  61559-4 0  9993","MEAN_MOTION":"15.08837495","RCS_SIZE":"LARGE","MEAN_ELEMENT_THEORY":"SGP4","NORAD_CAT_ID":"52607","COUNTRY_CODE":"US","OBJECT_ID":"2022-052K","SEMIMAJOR_AXIS":"6917.888","ELEMENT_SET_NO":"999","ARG_OF_PERICENTER":"39.2677","EPHEMERIS_TYPE":"0","APOAPSIS":"541.330","REV_AT_EPOCH":"2860","EPOCH":"2022-11-16T11:17:25.929600","SITE":"AFETR","CENTER_NAME":"EARTH","MEAN_MOTION_DOT":"0.00000691","RA_OF_ASC_NODE":"312.5109","PERIOD":"95.438","OBJECT_TYPE":"PAYLOAD","DECAY_DATE":null,"TIME_SYSTEM":"UTC","CLASSIFICATION_TYPE":"U","INCLINATION":"53.2171","TLE_LINE2":"2 52607  53.2171 312.5109 0002280  39.2677 320.8480 15.08837495 28609","LAUNCH_DATE":"2022-05-14","GP_ID":"217975694","ECCENTRICITY":"0.00022800","BSTAR":"0.00006155900000","FILE":"3659965","MEAN_ANOMALY":"320.8480","OBJECT_NAME":"STARLINK-3947"},{"OBJECT_NAME":"STARLINK-3979","MEAN_ANOMALY":"330.8158","FILE":"3660705","BSTAR":"0.00002780700000","ECCENTRICITY":"0.00027750","GP_ID":"218016661","TLE_LINE2":"2 52608  53.2192 306.4960 0002775  29.2989 330.8158 15.08833075 28348","LAUNCH_DATE":"2022-05-14","INCLINATION":"53.2192","CLASSIFICATION_TYPE":"U","TIME_SYSTEM":"UTC","DECAY_DATE":null,"OBJECT_TYPE":"PAYLOAD","PERIOD":"95.438","RA_OF_ASC_NODE":"306.4960","MEAN_MOTION_DOT":"0.00000154","CENTER_NAME":"EARTH","SITE":"AFETR","EPOCH":"2022-11-16T16:43:59.384640","REV_AT_EPOCH":"2834","APOAPSIS":"541.686","EPHEMERIS_TYPE":"0","ELEMENT_SET_NO":"999","ARG_OF_PERICENTER":"29.2989","SEMIMAJOR_AXIS":"6917.902","COUNTRY_CODE":"US","OBJECT_ID":"2022-052L","NORAD_CAT_ID":"52608","MEAN_ELEMENT_THEORY":"SGP4","RCS_SIZE":"LARGE","MEAN_MOTION":"15.08833075","MEAN_MOTION_DDOT":"0.0000000000000","TLE_LINE1":"1 52608U 22052L   22320.69721510  .00000154  00000-0  27807-4 0  9990","REF_FRAME":"TEME","PERIAPSIS":"537.847"},{"CLASSIFICATION_TYPE":"U","TIME_SYSTEM":"UTC","OBJECT_TYPE":"PAYLOAD","PERIOD":"95.437","DECAY_DATE":null,"FILE":"3660705","BSTAR":"0.00011717000000","OBJECT_NAME":"STARLINK-3997","MEAN_ANOMALY":"331.8790","GP_ID":"218017414","TLE_LINE2":"2 52609  53.2168 306.5397 0002992  28.2363 331.8790 15.08847804 28341","LAUNCH_DATE":"2022-05-14","INCLINATION":"53.2168","ECCENTRICITY":"0.00029920","MEAN_ELEMENT_THEORY":"SGP4","RCS_SIZE":"LARGE","OBJECT_ID":"2022-052M","COUNTRY_CODE":"US","NORAD_CAT_ID":"52609","PERIAPSIS":"537.652","MEAN_MOTION":"15.08847804","MEAN_MOTION_DDOT":"0.0000000000000","TLE_LINE1":"1 52609U 22052M   22320.69079845  .00001577  00000-0  11717-3 0  9990","REF_FRAME":"TEME","EPOCH":"2022-11-16T16:34:44.986080","RA_OF_ASC_NODE":"306.5397","MEAN_MOTION_DOT":"0.00001577","CENTER_NAME":"EARTH","SITE":"AFETR","EPHEMERIS_TYPE":"0","ARG_OF_PERICENTER":"28.2363","ELEMENT_SET_NO":"999","SEMIMAJOR_AXIS":"6917.857","REV_AT_EPOCH":"2834","APOAPSIS":"541.791"},{"ARG_OF_PERICENTER":"20.7451","ELEMENT_SET_NO":"999","EPHEMERIS_TYPE":"0","SEMIMAJOR_AXIS":"6917.891","APOAPSIS":"542.068","REV_AT_EPOCH":"2828","EPOCH":"2022-11-16T19:19:38.926560","RA_OF_ASC_NODE":"311.0081","CENTER_NAME":"EARTH","SITE":"AFETR","MEAN_MOTION_DOT":"-0.00000909","PERIAPSIS":"537.444","MEAN_MOTION":"15.08836485","REF_FRAME":"TEME","TLE_LINE1":"1 52610U 22052N   22320.80531165 -.00000909  00000-0 -38986-4 0  9991","MEAN_MOTION_DDOT":"0.0000000000000","MEAN_ELEMENT_THEORY":"SGP4","RCS_SIZE":"LARGE","COUNTRY_CODE":"US","NORAD_CAT_ID":"52610","OBJECT_ID":"2022-052N","GP_ID":"218017660","INCLINATION":"53.2175","TLE_LINE2":"2 52610  53.2175 311.0081 0003342  20.7451 339.3677 15.08836485 28280","LAUNCH_DATE":"2022-05-14","ECCENTRICITY":"0.00033420","FILE":"3660705","BSTAR":"-0.00003898600000","MEAN_ANOMALY":"339.3677","OBJECT_NAME":"STARLINK-3998","PERIOD":"95.438","OBJECT_TYPE":"PAYLOAD","DECAY_DATE":null,"TIME_SYSTEM":"UTC","CLASSIFICATION_TYPE":"U"},{"RA_OF_ASC_NODE":"311.0448","CENTER_NAME":"EARTH","SITE":"AFETR","MEAN_MOTION_DOT":"-0.00000347","EPOCH":"2022-11-16T19:09:03.048480","APOAPSIS":"541.679","REV_AT_EPOCH":"2828","ARG_OF_PERICENTER":"30.4563","ELEMENT_SET_NO":"999","EPHEMERIS_TYPE":"0","SEMIMAJOR_AXIS":"6917.883","COUNTRY_CODE":"US","NORAD_CAT_ID":"52611","OBJECT_ID":"2022-052P","MEAN_ELEMENT_THEORY":"SGP4","RCS_SIZE":"LARGE","MEAN_MOTION":"15.08839152","REF_FRAME":"TEME","MEAN_MOTION_DDOT":"0.0000000000000","TLE_LINE1":"1 52611U 22052P   22320.79795195 -.00000347  00000-0 -37019-5 0  9998","PERIAPSIS":"537.817","MEAN_ANOMALY":"329.6591","OBJECT_NAME":"STARLINK-3980","FILE":"3660705","BSTAR":"-0.00000370190000","ECCENTRICITY":"0.00027920","GP_ID":"218015913","TLE_LINE2":"2 52611  53.2183 311.0448 0002792  30.4563 329.6591 15.08839152 28288","LAUNCH_DATE":"2022-05-14","INCLINATION":"53.2183","TIME_SYSTEM":"UTC","CLASSIFICATION_TYPE":"U","DECAY_DATE":null,"PERIOD":"95.438","OBJECT_TYPE":"PAYLOAD"}];
